CCSDS_OMM_VERS = 2.0
CREATION_DATE  = 
ORIGINATOR     = 

OBJECT_NAME    = STARLINK-36981
OBJECT_ID      = 2026-049G
CENTER_NAME    = EARTH
REF_FRAME      = TEME
TIME_SYSTEM    = UTC
MEAN_ELEMENT_THEORY = SGP/SGP4

EPOCH          = 2026-04-04T05:38:34.502784
MEAN_MOTION    = 15.80957795
ECCENTRICITY   = .00012259
INCLINATION    = 97.2858
RA_OF_ASC_NODE = 114.8034
ARG_OF_PERICENTER = 84.7844
MEAN_ANOMALY   = 275.3565

EPHEMERIS_TYPE = 0
CLASSIFICATION_TYPE = U
NORAD_CAT_ID   = 68148
ELEMENT_SET_NO = 999
REV_AT_EPOCH   = 344
BSTAR          = .96093985E-3
MEAN_MOTION_DOT = .18919E-2
MEAN_MOTION_DDOT = 0

CCSDS_OMM_VERS = 2.0
CREATION_DATE  = 
ORIGINATOR     = 

OBJECT_NAME    = STARLINK-36992
OBJECT_ID      = 2026-049H
CENTER_NAME    = EARTH
REF_FRAME      = TEME
TIME_SYSTEM    = UTC
MEAN_ELEMENT_THEORY = SGP/SGP4

EPOCH          = 2026-04-04T05:37:29.570592
MEAN_MOTION    = 15.80975500
ECCENTRICITY   = .00009747
INCLINATION    = 97.2857
RA_OF_ASC_NODE = 114.8042
ARG_OF_PERICENTER = 76.5916
MEAN_ANOMALY   = 283.5461

EPHEMERIS_TYPE = 0
CLASSIFICATION_TYPE = U
NORAD_CAT_ID   = 68149
ELEMENT_SET_NO = 999
REV_AT_EPOCH   = 344
BSTAR          = .97072672E-3
MEAN_MOTION_DOT = .19132E-2
MEAN_MOTION_DDOT = 0

CCSDS_OMM_VERS = 2.0
CREATION_DATE  = 
ORIGINATOR     = 

OBJECT_NAME    = STARLINK-37060
OBJECT_ID      = 2026-049J
CENTER_NAME    = EARTH
REF_FRAME      = TEME
TIME_SYSTEM    = UTC
MEAN_ELEMENT_THEORY = SGP/SGP4

EPOCH          = 2026-04-04T05:36:24.651360
MEAN_MOTION    = 15.80969218
ECCENTRICITY   = .00013004
INCLINATION    = 97.2857
RA_OF_ASC_NODE = 114.8052
ARG_OF_PERICENTER = 91.2664
MEAN_ANOMALY   = 268.8753

EPHEMERIS_TYPE = 0
CLASSIFICATION_TYPE = U
NORAD_CAT_ID   = 68150
ELEMENT_SET_NO = 999
REV_AT_EPOCH   = 344
BSTAR          = .93718954E-3
MEAN_MOTION_DOT = .184507E-2
MEAN_MOTION_DDOT = 0

CCSDS_OMM_VERS = 2.0
CREATION_DATE  = 
ORIGINATOR     = 

OBJECT_NAME    = STARLINK-37073
OBJECT_ID      = 2026-049K
CENTER_NAME    = EARTH
REF_FRAME      = TEME
TIME_SYSTEM    = UTC
MEAN_ELEMENT_THEORY = SGP/SGP4

EPOCH          = 2026-04-04T06:00:02.000160
MEAN_MOTION    = 15.75278254
ECCENTRICITY   = .00016298
INCLINATION    = 97.2849
RA_OF_ASC_NODE = 114.7968
ARG_OF_PERICENTER = 131.1135
MEAN_ANOMALY   = 261.4080

EPHEMERIS_TYPE = 0
CLASSIFICATION_TYPE = U
NORAD_CAT_ID   = 68151
ELEMENT_SET_NO = 999
REV_AT_EPOCH   = 473
BSTAR          = -.14137564E-2
MEAN_MOTION_DOT = -.206783E-2
MEAN_MOTION_DDOT = 0

CCSDS_OMM_VERS = 2.0
CREATION_DATE  = 
ORIGINATOR     = 

OBJECT_NAME    = STARLINK-37049
OBJECT_ID      = 2026-049L
CENTER_NAME    = EARTH
REF_FRAME      = TEME
TIME_SYSTEM    = UTC
MEAN_ELEMENT_THEORY = SGP/SGP4

EPOCH          = 2026-04-04T06:00:02.000160
MEAN_MOTION    = 15.75172706
ECCENTRICITY   = .00008346
INCLINATION    = 97.2849
RA_OF_ASC_NODE = 114.8154
ARG_OF_PERICENTER = 105.4041
MEAN_ANOMALY   = 333.1206

EPHEMERIS_TYPE = 0
CLASSIFICATION_TYPE = U
NORAD_CAT_ID   = 68152
ELEMENT_SET_NO = 999
REV_AT_EPOCH   = 473
BSTAR          = -.25897678E-3
MEAN_MOTION_DOT = -.38553E-3
MEAN_MOTION_DDOT = 0

CCSDS_OMM_VERS = 2.0
CREATION_DATE  = 
ORIGINATOR     = 

OBJECT_NAME    = STARLINK-37072
OBJECT_ID      = 2026-049M
CENTER_NAME    = EARTH
REF_FRAME      = TEME
TIME_SYSTEM    = UTC
MEAN_ELEMENT_THEORY = SGP/SGP4

EPOCH          = 2026-04-04T05:56:52.791936
MEAN_MOTION    = 15.75292843
ECCENTRICITY   = .00014699
INCLINATION    = 97.2851
RA_OF_ASC_NODE = 114.7861
ARG_OF_PERICENTER = 107.2678
MEAN_ANOMALY   = 252.8748

EPHEMERIS_TYPE = 0
CLASSIFICATION_TYPE = U
NORAD_CAT_ID   = 68153
ELEMENT_SET_NO = 999
REV_AT_EPOCH   = 344
BSTAR          = .89692139E-3
MEAN_MOTION_DOT = .136415E-2
MEAN_MOTION_DDOT = 0

CCSDS_OMM_VERS = 2.0
CREATION_DATE  = 
ORIGINATOR     = 

OBJECT_NAME    = STARLINK-36241
OBJECT_ID      = 2026-049N
CENTER_NAME    = EARTH
REF_FRAME      = TEME
TIME_SYSTEM    = UTC
MEAN_ELEMENT_THEORY = SGP/SGP4

EPOCH          = 2026-04-04T04:42:41.250528
MEAN_MOTION    = 15.75314474
ECCENTRICITY   = .00013851
INCLINATION    = 97.2844
RA_OF_ASC_NODE = 114.7019
ARG_OF_PERICENTER = 94.0802
MEAN_ANOMALY   = 266.0621

EPHEMERIS_TYPE = 0
CLASSIFICATION_TYPE = U
NORAD_CAT_ID   = 68154
ELEMENT_SET_NO = 999
REV_AT_EPOCH   = 343
BSTAR          = .13179662E-2
MEAN_MOTION_DOT = .202265E-2
MEAN_MOTION_DDOT = 0

CCSDS_OMM_VERS = 2.0
CREATION_DATE  = 
ORIGINATOR     = 

OBJECT_NAME    = STARLINK-37048
OBJECT_ID      = 2026-049P
CENTER_NAME    = EARTH
REF_FRAME      = TEME
TIME_SYSTEM    = UTC
MEAN_ELEMENT_THEORY = SGP/SGP4

EPOCH          = 2026-04-04T05:28:50.170080
MEAN_MOTION    = 15.81021345
ECCENTRICITY   = .00014726
INCLINATION    = 97.2853
RA_OF_ASC_NODE = 114.8119
ARG_OF_PERICENTER = 74.5439
MEAN_ANOMALY   = 285.5992

EPHEMERIS_TYPE = 0
CLASSIFICATION_TYPE = U
NORAD_CAT_ID   = 68155
ELEMENT_SET_NO = 999
REV_AT_EPOCH   = 344
BSTAR          = .13958526E-2
MEAN_MOTION_DOT = .278544E-2
MEAN_MOTION_DDOT = 0

CCSDS_OMM_VERS = 2.0
CREATION_DATE  = 
ORIGINATOR     = 

OBJECT_NAME    = STARLINK-36313
OBJECT_ID      = 2026-049Q
CENTER_NAME    = EARTH
REF_FRAME      = TEME
TIME_SYSTEM    = UTC
MEAN_ELEMENT_THEORY = SGP/SGP4

EPOCH          = 2026-04-04T05:29:55.062528
MEAN_MOTION    = 15.81007319
ECCENTRICITY   = .00014927
INCLINATION    = 97.2854
RA_OF_ASC_NODE = 114.8105
ARG_OF_PERICENTER = 71.1869
MEAN_ANOMALY   = 288.9561

EPHEMERIS_TYPE = 0
CLASSIFICATION_TYPE = U
NORAD_CAT_ID   = 68156
ELEMENT_SET_NO = 999
REV_AT_EPOCH   = 344
BSTAR          = .12844349E-2
MEAN_MOTION_DOT = .255451E-2
MEAN_MOTION_DDOT = 0

CCSDS_OMM_VERS = 2.0
CREATION_DATE  = 
ORIGINATOR     = 

OBJECT_NAME    = STARLINK-37064
OBJECT_ID      = 2026-049R
CENTER_NAME    = EARTH
REF_FRAME      = TEME
TIME_SYSTEM    = UTC
MEAN_ELEMENT_THEORY = SGP/SGP4

EPOCH          = 2026-04-04T05:32:04.898400
MEAN_MOTION    = 15.81005292
ECCENTRICITY   = .00008008
INCLINATION    = 97.2854
RA_OF_ASC_NODE = 114.8086
ARG_OF_PERICENTER = 70.2859
MEAN_ANOMALY   = 289.8496

EPHEMERIS_TYPE = 0
CLASSIFICATION_TYPE = U
NORAD_CAT_ID   = 68157
ELEMENT_SET_NO = 999
REV_AT_EPOCH   = 344
BSTAR          = .13069464E-2
MEAN_MOTION_DOT = .260048E-2
MEAN_MOTION_DDOT = 0

CCSDS_OMM_VERS = 2.0
CREATION_DATE  = 
ORIGINATOR     = 

OBJECT_NAME    = STARLINK-37069
OBJECT_ID      = 2026-049S
CENTER_NAME    = EARTH
REF_FRAME      = TEME
TIME_SYSTEM    = UTC
MEAN_ELEMENT_THEORY = SGP/SGP4

EPOCH          = 2026-04-04T04:37:36.046848
MEAN_MOTION    = 15.75286983
ECCENTRICITY   = .00016584
INCLINATION    = 97.2847
RA_OF_ASC_NODE = 114.7070
ARG_OF_PERICENTER = 114.4957
MEAN_ANOMALY   = 245.6481

EPHEMERIS_TYPE = 0
CLASSIFICATION_TYPE = U
NORAD_CAT_ID   = 68158
ELEMENT_SET_NO = 999
REV_AT_EPOCH   = 343
BSTAR          = .10384201E-2
MEAN_MOTION_DOT = .158326E-2
MEAN_MOTION_DDOT = 0

CCSDS_OMM_VERS = 2.0
CREATION_DATE  = 
ORIGINATOR     = 

OBJECT_NAME    = STARLINK-37053
OBJECT_ID      = 2026-049T
CENTER_NAME    = EARTH
REF_FRAME      = TEME
TIME_SYSTEM    = UTC
MEAN_ELEMENT_THEORY = SGP/SGP4

EPOCH          = 2026-04-04T06:00:02.000160
MEAN_MOTION    = 15.75196260
ECCENTRICITY   = .00011417
INCLINATION    = 97.2852
RA_OF_ASC_NODE = 114.8319
ARG_OF_PERICENTER = 87.0424
MEAN_ANOMALY   = 27.4644

EPHEMERIS_TYPE = 0
CLASSIFICATION_TYPE = U
NORAD_CAT_ID   = 68159
ELEMENT_SET_NO = 999
REV_AT_EPOCH   = 473
BSTAR          = -.25851688E-3
MEAN_MOTION_DOT = -.38525E-3
MEAN_MOTION_DDOT = 0

